VELOX-P2
1 39438U 13066Y   17128.85493040 +.00000190 +00000-0 +32374-4 0  9998
2 39438 097.6310 166.8850 0072309 056.2298 304.5774 14.77512430185448
FIRSTMOVE
1 39439U 13066Z   17128.62924668 +.00000453 +00000-0 +62793-4 0  9999
2 39439 097.6370 171.3860 0067267 043.0616 317.5832 14.81010446185693
CUBEBUG-2
1 39440U 13066AA  17128.91065934 +.00000210 +00000-0 +36283-4 0  9991
2 39440 097.6322 162.5366 0082269 068.3442 292.6505 14.75426438185102
AO-73
1 39444U 13066AE  17128.69433635 +.00000266 +00000-0 +39557-4 0  9995
2 39444 097.6350 173.8464 0059432 037.4362 323.0968 14.81411963185763
UWE-3
1 39446U 13066AG  17128.88094856 +.00000203 +00000-0 +33780-4 0  9999
2 39446 097.6316 167.4924 0071737 054.3533 306.4330 14.77958912184804
FIREBIRD-A
1 39463U 13072B   17129.25046156 +.00000306 +00000-0 +53432-4 0 04352
2 39463 120.4929 045.6751 0266554 170.5379 190.0897 14.76704860071399
FIREBIRD-B
1 39464U 13072C   17129.37949135 -.00000020 +00000-0 +27968-4 0 04231
2 39464 120.4917 046.6901 0265659 170.6950 189.9198 14.76849885071484
MCUBED-2
1 39469U 13072H   17129.31565231 +.00000260 +00000-0 +50176-4 0 04435
2 39469 120.4907 046.5156 0263029 169.6174 191.0551 14.76916348071503
IPEX
1 39471U 13072K   17129.49555008 +.00000103 +00000-0 +38643-4 0 04293
2 39471 120.4906 037.4157 0271729 167.1638 193.6533 14.74615867071406
RS-41
1 39492U 13078C   17128.90518429 +.00000152 +00000-0 +14004-4 0  9994
2 39492 082.4214 219.9679 0020624 160.8233 199.3765 14.87576287180105
RS-46
1 39497U 13076E   17128.77476693 +.00000024 +00000-0 +10000-3 0  9997
2 39497 082.4844 082.2024 0017771 149.9261 210.2841 12.42672696152660
RS-47
1 39765U 14028E   17128.71102197 +.00000118 +00000-0 +40673-3 0  9995
2 39765 082.4424 338.7191 0228009 252.0514 105.5608 12.83422876138671
SPROUT
1 39770U 14029E   17128.84480919 +.00000611 +00000-0 +75818-4 0  9995
2 39770 097.8701 228.6071 0010847 096.2025 264.0426 14.86165596160293
UNISAT-6
1 40012U 14033C   17128.61649545 +.00000206 +00000-0 +38451-4 0  9990
2 40012 097.8625 013.5800 0060043 061.9840 298.7425 14.73594956155117
BUGSAT-1
1 40014U 14033E   17128.81241547 +.00000637 +00000-0 +63659-4 0  9990
2 40014 097.9559 053.0770 0033650 095.4563 265.0505 14.94723739157326
AURORA
1 40017U 14033H   17128.92382634 +.00000506 +00000-0 +54451-4 0  9993
2 40017 097.9447 049.0959 0025184 096.7569 263.6517 14.92744177157102
PACE
1 40022U 14033N   17125.39675477 +.00000250 +00000-0 +33212-4 0  9995
2 40022 097.9165 036.5780 0015029 088.0074 272.2863 14.88173264156118
DUCHIFAT-1
1 40021U 14033M   17128.80767697 +.00000318 +00000-0 +39008-4 0  9993
2 40021 097.9207 041.9128 0014655 072.6094 287.6725 14.89843290156734
NCBR1
1 40024U 14033Q   17128.72481747 +.00000302 +00000-0 +37880-4 0  9995
2 40024 097.9168 040.7791 0013890 073.8470 286.4275 14.89174962156670
QB50P1
1 40025U 14033R   17128.75056662 +.00000258 +00000-0 +33908-4 0  9990
2 40025 097.9152 039.9044 0014096 076.1458 284.1325 14.88386623156114
POPSATHIP-1
1 40028U 14033U   17128.71146548 +.00000105 +00000-0 +17453-4 0  9990
2 40028 097.9182 040.1260 0015509 073.2028 287.0900 14.88256019156605
DTUSAT-2
1 40030U 14033W   17128.74582254 +.00000255 +00000-0 +33822-4 0  9998
2 40030 097.9119 039.0532 0013508 071.2722 288.9959 14.88010905156070
QB50P2
1 40032U 14033Y   17128.85355959 +.00000249 +00000-0 +33205-4 0  9990
2 40032 097.9125 039.1674 0013447 071.4327 288.8348 14.87945318156077
ANTELSAT
1 40034U 14033AA  17128.69918696 +.00000227 +00000-0 +41426-4 0  9997
2 40034 097.8647 013.8436 0060467 060.5454 300.1770 14.73671437155110
PERSEUS-M2
1 40037U 14033AD  17128.74101387 +.00000091 +00000-0 +16602-4 0  9994
2 40037 097.9150 037.7050 0015913 076.1356 284.1628 14.86211237155957
PERSEUS-M1
1 40039U 14033AF  17128.79815616 +.00000099 +00000-0 +17635-4 0  9993
2 40039 097.9158 037.3448 0015740 072.2647 288.0285 14.85835656155916
POLYITAN
1 40042U 14033AJ  17128.78108052 +.00000296 +00000-0 +38352-4 0  9993
2 40042 097.9224 039.9046 0016259 064.9083 295.3819 14.88016521156059
TIGRISAT
1 40043U 14033AK  17128.93810956 +.00000141 +00000-0 +28529-4 0  9998
2 40043 097.8629 014.7062 0061596 061.1819 299.5555 14.73959314154755
AISAT
1 40054U 14034B   17128.85383982 +.00000367 +00000-0 +59561-4 0  9996
2 40054 098.1865 227.8859 0013557 166.0241 194.1347 14.77042678153918
CANX-4
1 40055U 14034C   17128.81439268 +.00000086 +00000-0 +20809-4 0  9993
2 40055 098.1833 225.4894 0014297 182.1810 177.9338 14.74593603153746
CANX-5
1 40056U 14034D   17128.81536162 +.00000090 +00000-0 +21423-4 0  9993
2 40056 098.1833 225.4876 0014313 182.4164 177.6977 14.74589815153747
VELOX-1
1 40057U 14034E   17128.80511856 +.00000378 +00000-0 +61101-4 0  9992
2 40057 098.1856 228.4348 0011277 177.3013 182.8255 14.77089049153948
METEOR-M2
1 40069U 14037A   17128.79207345 -.00000043 +00000-0 +14454-6 0  9992
2 40069 098.6581 184.3276 0005190 340.9124 019.1859 14.20641677146964
DX-1
1 40071U 14037C   17128.87772900 +.00000134 +00000-0 +24710-4 0  9992
2 40071 098.3330 238.3932 0008533 170.3908 189.7472 14.81001614153156
UKUBE-1
1 40074U 14037F   17128.83485838 +.00000384 +00000-0 +53816-4 0  9998
2 40074 098.3410 241.9952 0004809 164.0326 196.1041 14.83467189153346
HODOYOSHI-1
1 40299U 14070B   17128.81970772 +.00000689 +00000-0 +33034-4 0  9996
2 40299 097.4033 212.1571 0011891 226.0372 249.3371 15.22183633138952
CHUBUSAT-1
1 40300U 14070C   17128.87926568 +.00000750 +00000-0 +37068-4 0  9999
2 40300 097.3961 209.4930 0019109 237.4411 234.8338 15.20775816138817
TSUBAME
1 40302U 14070E   17128.81220628 +.00000488 +00000-0 +28256-4 0  9996
2 40302 097.3782 201.9619 0038136 259.2255 170.6305 15.16274109138387
FIREBIRD-3
1 40377U 15003B   17128.91753119 +.00002533 +00000-0 +11096-3 0  9998
2 40377 099.1210 305.0553 0137671 132.2319 229.0687 15.15158943125051
FIREBIRD-4
1 40378U 15003C   17128.77825158 +.00002711 +00000-0 +11823-3 0  9992
2 40378 099.1212 304.9227 0137872 132.6036 228.6918 15.15180244125043
GRIFEX
1 40379U 15003D   17128.76599486 +.00002304 +00000-0 +10683-3 0  9995
2 40379 099.1224 302.8542 0143475 139.6802 221.5169 15.12781822124920
EXOCUBE
1 40380U 15003E   17128.77991820 +.00001480 +00000-0 +72718-4 0  9998
2 40380 099.1266 301.7044 0146858 143.2710 217.8689 15.11350245124835
PSAT
1 40654U 15025D   17129.38710856 +.00005026 +00000-0 +99539-4 0 04425
2 40654 054.9949 049.9383 0184823 167.2098 193.3732 15.32833600073948
BRICSAT-P
1 40655U 15025E   17129.26093321 +.00008529 +00000-0 +13608-3 0 04922
2 40655 054.9831 028.6116 0153396 178.8538 181.2902 15.41986458074211
DEORBITSAIL
1 40719U 15032E   17128.66779552 +.00000400 +00000-0 +65532-4 0  9997
2 40719 097.9849 022.9114 0015059 271.7839 088.1645 14.76014755098497
NUDT
1 40900U 15049B   17128.91802337 +.00001970 +00000-0 +96705-4 0  9992
2 40900 097.4432 137.4034 0014302 010.7420 349.4118 15.19190082090498
XW-2A
1 40903U 15049E   17128.90541168 +.00001797 +00000-0 +49278-4 0  9996
2 40903 097.4243 154.1239 0016341 051.6733 308.5979 15.38546431091609
XW-2C
1 40906U 15049H   17128.92887955 +.00000637 +00000-0 +38111-4 0  9994
2 40906 097.4551 135.2059 0015128 357.3583 002.7567 15.14461342090296
XW-2D
1 40907U 15049J   17128.91488362 +.00000697 +00000-0 +41248-4 0  9994
2 40907 097.4520 134.9645 0014434 355.9062 004.2050 15.14559526090291
LILACSAT-2
1 40908U 15049K   17128.93907007 +.00000348 +00000-0 +23311-4 0  9993
2 40908 097.4622 134.8008 0015917 352.6999 007.3998 15.13073070090230
XW-2E
1 40909U 15049L   17128.95435164 +.00001027 +00000-0 +57032-4 0  9998
2 40909 097.4537 136.0383 0014137 358.5368 001.5821 15.15877906090350
XW-2F
1 40910U 15049M   17128.93945257 +.00001031 +00000-0 +57989-4 0  9993
2 40910 097.4542 135.6102 0015201 353.4320 006.6711 15.15404555090335
XW-2B
1 40911U 15049N   17128.92002362 +.00000682 +00000-0 +40512-4 0  9999
2 40911 097.4564 135.3256 0014334 356.2465 003.8657 15.14523599090195
DCBB
1 40912U 15049P   17128.85979549 +.00001170 +00000-0 +61610-4 0  9997
2 40912 097.4518 137.2586 0015125 346.2366 134.7344 15.17490381090327
TW-1C
1 40926U 15051B   17128.81295456 +.00005450 +00000-0 +12906-3 0  9997
2 40926 097.2343 168.6872 0010458 319.2548 102.1899 15.42138791090852
TW-1B
1 40927U 15051C   17128.93097516 +.00005337 +00000-0 +13107-3 0  9996
2 40927 097.2427 168.8371 0010416 329.6636 151.7770 15.41049201090820
TW-1A
1 40928U 15051D   17128.67854743 +.00002857 +00000-0 +84076-4 0  9999
2 40928 097.2314 165.2044 0012218 349.2814 130.8032 15.35826132090639
LAPAN-A2
1 40931U 15052B   17128.59454086 +.00000725 +00000-0 +12052-4 0  9998
2 40931 005.9991 155.0301 0013283 041.3146 318.7998 14.76526749087105
LQSAT
1 40958U 15057A   17128.84784560 +.00000018 +00000-0 +10665-4 0  9996
2 40958 097.9791 204.8502 0017833 188.0274 172.0649 14.72961152085328
FOX-1A
1 40967U 15058D   17129.05927937 +.00000182 +00000-0 +40516-4 0 04780
2 40967 064.7791 337.5636 0172207 092.5170 269.5660 14.75400475071344
BISONSAT
1 40968U 15058E   17129.08030138 +.00000422 +00000-0 +67380-4 0 04709
2 40968 064.7782 336.2126 0170052 092.2850 269.7737 14.76107381071510
ATHENOXAT-1
1 41168U 15077C   17128.37475694 +.00001964 +00000-0 +73938-4 0  9998
2 41168 014.9863 100.2369 0012305 183.3077 069.0405 15.11460316077000
GALASSIA
1 41170U 15077E   17128.32847007 +.00001734 +00000-0 +59591-4 0  9991
2 41170 014.9886 097.1825 0013639 201.1847 158.7909 15.11976630077033
AGGIESAT4
1 41313U 98067HP  17128.50481364 +.00016667 +00000-0 +12796-3 0  9996
2 41313 051.6363 206.2154 0004889 351.6225 008.4691 15.72203253072682
BEVO-2
1 41314U 98067HQ  17128.23918047 +.00156778 +21058-4 +35462-3 0  9993
2 41314 051.6221 185.0735 0009047 003.7425 356.3650 15.97185722072736
CHUBUSAT-2
1 41338U 16012B   17128.08554181 +.00000335 +00000-0 +19655-4 0  9991
2 41338 031.0044 006.9429 0013847 021.9444 338.1782 14.99717679066969
